NORAD_CAT_ID,OBJECT_NAME,OBJECT_TYPE,EPOCH,MEAN_MOTION,ECCENTRICITY,INCLINATION,RA_OF_ASC_NODE,ARG_OF_PERICENTER,MEAN_ANOMALY,BSTAR,MEAN_MOTION_DOT,MEAN_MOTION_DDOT,TLE_LINE0,TLE_LINE1,TLE_LINE2,SEMIMAJOR_AXIS,PERIOD,APOGEE,PERIGEE,DECAYED
53003.0,STARLINK-4255,PAYLOAD,2023-02-01 13:18:33,15.08847082,0.0001196,53.2185,136.4791,78.7162,281.3964,7.4763e-05,9.02e-06,0.0,0 STARLINK-4255,1 53003U 22076T   23032.55455772  .00000902  00000-0  74763-4 0  9990,2 53003  53.2185 136.4791 0001196  78.7162 281.3964 15.08847082 31938,6917.859,95.437,540.551,538.896,0.0
53003.0,STARLINK-4255,PAYLOAD,2023-02-02 13:09:20,15.08847413,0.0001234,53.2198,132.0212,87.544,272.5694,9.898e-05,1.288e-05,0.0,0 STARLINK-4255,1 53003U 22076T   23033.54815533  .00001288  00000-0  98980-4 0  9990,2 53003  53.2198 132.0212 0001234  87.5440 272.5694 15.08847413 32089,6917.858,95.437,540.576,538.869,0.0
53003.0,STARLINK-4255,PAYLOAD,2023-02-02 16:20:06,15.08856685,0.0001121,53.2168,131.4215,98.4333,261.6786,0.00013984,1.939e-05,0.0,0 STARLINK-4255,1 53003U 22076T   23033.68062693  .00001939  00000-0  13984-3 0  9999,2 53003  53.2168 131.4215 0001121  98.4333 261.6786 15.08856685 32575,6917.829,95.436,540.47,538.919,0.0
53003.0,STARLINK-4255,PAYLOAD,2023-02-03 06:38:36,15.08827901,6.72e-05,53.2187,128.7486,76.0848,284.0219,-7.2158e-05,-1.435e-05,0.0,0 STARLINK-4255,1 53003U 22076T   23034.27681077 -.00001435  00000-0 -72158-4 0  9990,2 53003  53.2187 128.7486 0000672  76.0848 284.0219 15.08827901 32667,6917.917,95.438,540.247,539.317,0.0
53003.0,STARLINK-4255,PAYLOAD,2023-02-03 09:49:22,15.08828505,8.18e-05,53.2184,128.1535,85.7654,274.3432,-7.0903e-05,-1.416e-05,0.0,0 STARLINK-4255,1 53003U 22076T   23034.40929100 -.00001416  00000-0 -70903-4 0  9992,2 53003  53.2184 128.1535 0000818  85.7654 274.3432 15.08828505 32218,6917.916,95.438,540.346,539.215,0.0
53003.0,STARLINK-4255,PAYLOAD,2023-02-04 11:15:32,15.08844435,0.0001108,53.2179,123.3945,105.869,254.2424,1.4685e-05,-5.4e-07,0.0,0 STARLINK-4255,1 53003U 22076T   23035.46912367 -.00000054  00000-0  14685-4 0  9997,2 53003  53.2179 123.3945 0001108 105.8690 254.2424 15.08844435 32848,6917.867,95.437,540.498,538.965,0.0
53003.0,STARLINK-4255,PAYLOAD,2023-02-04 12:50:55,15.0884668,0.0001115,53.2182,123.0971,106.7934,253.3181,4.018e-05,3.52e-06,0.0,0 STARLINK-4255,1 53003U 22076T   23035.53536179  .00000352  00000-0  40180-4 0  9997,2 53003  53.2182 123.0971 0001115 106.7934 253.3181 15.08846680 32380,6917.86,95.437,540.496,538.954,0.0
53003.0,STARLINK-4255,PAYLOAD,2023-02-05 11:06:19,15.08848719,0.000119,53.2177,118.9346,101.6713,258.4413,0.0003527,5.331e-05,0.0,0 STARLINK-4255,1 53003U 22076T   23036.46272079  .00005331  00000-0  35270-3 0  9991,2 53003  53.2177 118.9346 0001190 101.6713 258.4413 15.08848719 32520,6917.854,95.437,540.542,538.896,0.0
53003.0,STARLINK-4255,PAYLOAD,2023-02-05 22:14:00,15.08847978,0.0001436,53.2165,116.8524,97.8502,262.2654,6.2124e-05,7.01e-06,0.0,0 STARLINK-4255,1 53003U 22076T   23036.92639979  .00000701  00000-0  62124-4 0  9993,2 53003  53.2165 116.8524 0001436  97.8502 262.2654 15.08847978 32590,6917.856,95.437,540.714,538.728,0.0
53003.0,STARLINK-4255,PAYLOAD,2023-02-06 10:57:06,15.08842565,0.0001109,53.2189,114.4759,86.0634,274.0485,-1.4332e-05,-5.16e-06,0.0,0 STARLINK-4255,1 53003U 22076T   23037.45632745 -.00000516  00000-0 -14332-4 0  9990,2 53003  53.2189 114.4759 0001109  86.0634 274.0485 15.08842565 33145,6917.873,95.437,540.505,538.97,0.0
53003.0,STARLINK-4255,PAYLOAD,2023-02-06 12:32:29,15.088467,0.0001179,53.2171,114.176,105.1916,254.9207,9.6425e-05,1.247e-05,0.0,0 STARLINK-4255,1 53003U 22076T   23037.52256209  .00001247  00000-0  96425-4 0  9998,2 53003  53.2171 114.1760 0001179 105.1916 254.9207 15.08846700 32680,6917.86,95.437,540.541,538.909,0.0
53003.0,STARLINK-4255,PAYLOAD,2023-02-06 17:18:38,15.08853921,0.0001136,53.2162,113.2841,108.5401,251.5714,0.00017229,2.456e-05,0.0,0 STARLINK-4255,1 53003U 22076T   23037.72127508  .00002456  00000-0  17229-3 0  9996,2 53003  53.2162 113.2841 0001136 108.5401 251.5714 15.08853921 33184,6917.838,95.437,540.489,538.917,0.0
53003.0,STARLINK-4255,PAYLOAD,2023-02-06 22:04:48,15.08822287,3.89e-05,53.2166,112.3932,134.6191,225.4833,-0.0002821,-4.772e-05,0.0,0 STARLINK-4255,1 53003U 22076T   23037.92000936 -.00004772  00000-0 -28210-3 0  9990,2 53003  53.2166 112.3932 0000389 134.6191 225.4833 15.08822287 33211,6917.935,95.439,540.069,539.53,0.0
53003.0,STARLINK-4255,PAYLOAD,2023-02-07 10:47:53,15.08838665,0.0001147,53.2148,110.0119,94.0355,266.0768,-4.0748e-05,-9.36e-06,0.0,0 STARLINK-4255,1 53003U 22076T   23038.44992741 -.00000936  00000-0 -40748-4 0  9991,2 53003  53.2148 110.0119 0001147  94.0355 266.0768 15.08838665 33290,6917.884,95.438,540.543,538.956,0.0
53003.0,STARLINK-4255,PAYLOAD,2023-02-07 13:58:39,15.08841662,0.0001223,53.2162,109.4179,102.8665,257.2464,3.4491e-05,2.61e-06,0.0,0 STARLINK-4255,1 53003U 22076T   23038.58240645  .00000261  00000-0  34491-4 0  9992,2 53003  53.2162 109.4179 0001223 102.8665 257.2464 15.08841662 32847,6917.875,95.437,540.586,538.894,0.0
53003.0,STARLINK-4255,PAYLOAD,2023-02-07 21:55:35,15.08841851,0.0001138,53.2156,107.9311,86.6233,273.4889,0.00015752,2.22e-05,0.0,0 STARLINK-4255,1 53003U 22076T   23038.91360823  .00002220  00000-0  15752-3 0  9995,2 53003  53.2156 107.9311 0001138  86.6233 273.4889 15.08841851 32892,6917.875,95.437,540.527,538.952,0.0
53003.0,STARLINK-4255,PAYLOAD,2023-02-08 10:38:40,15.08850799,0.0001279,53.2155,105.5537,76.2562,283.8572,0.00045894,7.026e-05,0.0,0 STARLINK-4255,1 53003U 22076T   23039.44352784  .00007026  00000-0  45894-3 0  9990,2 53003  53.2155 105.5537 0001279  76.2562 283.8572 15.08850799 32975,6917.847,95.437,540.597,538.828,0.0
53003.0,STARLINK-4255,PAYLOAD,2023-02-08 13:49:26,15.08867205,0.0001293,53.2152,104.9573,84.7869,275.327,0.00089023,0.00013919,0.0,0 STARLINK-4255,1 53003U 22076T   23039.57600279  .00013919  00000-0  89023-3 0  9999,2 53003  53.2152 104.9573 0001293  84.7869 275.3270 15.08867205 33461,6917.797,95.436,540.557,538.768,0.0
53003.0,STARLINK-4255,PAYLOAD,2023-02-09 04:07:55,15.08844101,0.00013,53.2164,102.2803,110.982,249.1311,0.00014187,1.971e-05,0.0,0 STARLINK-4255,1 53003U 22076T   23040.17216764  .00001971  00000-0  14187-3 0  9993,2 53003  53.2164 102.2803 0001300 110.9820 249.1311 15.08844101 33554,6917.868,95.437,540.632,538.834,0.0
53003.0,STARLINK-4255,PAYLOAD,2023-02-09 10:29:27,15.08852975,0.0001305,53.2148,101.0908,96.5202,263.5938,0.00055422,8.547e-05,0.0,0 STARLINK-4255,1 53003U 22076T   23040.43712601  .00008547  00000-0  55422-3 0  9996,2 53003  53.2148 101.0908 0001305  96.5202 263.5938 15.08852975 33123,6917.841,95.437,540.609,538.803,0.0
53003.0,STARLINK-4255,PAYLOAD,2023-02-09 13:40:13,15.08860764,0.0001411,53.2154,100.4968,103.8921,256.2228,0.0010337,0.00016211,0.0,0 STARLINK-4255,1 53003U 22076T   23040.56960441  .00016211  00000-0  10337-2 0  9999,2 53003  53.2154 100.4968 0001411 103.8921 256.2228 15.08860764 33617,6917.817,95.436,540.658,538.706,0.0
53003.0,STARLINK-4255,PAYLOAD,2023-02-10 03:58:42,15.08843247,0.0001589,53.2149,97.8209,86.8259,273.2914,0.001243,0.00019551,0.0,0 STARLINK-4255,1 53003U 22076T   23041.16577344  .00019551  00000-0  12430-2 0  9998,2 53003  53.2149  97.8209 0001589  86.8259 273.2914 15.08843247 33234,6917.87,95.437,540.835,538.636,0.0
53003.0,STARLINK-4255,PAYLOAD,2023-02-10 10:20:15,15.08848641,0.0001429,53.2158,96.6287,101.0875,259.0278,0.0018245,0.00028875,0.0,0 STARLINK-4255,1 53003U 22076T   23041.43073357  .00028875  00000-0  18245-2 0  9992,2 53003  53.2158  96.6287 0001429 101.0875 259.0278 15.08848641 33748,6917.854,95.437,540.708,538.73,0.0
53003.0,STARLINK-4255,PAYLOAD,2023-02-11 14:57:11,15.08874679,0.0001229,53.2155,91.2767,98.9522,261.1609,0.0016238,0.00025674,0.0,0 STARLINK-4255,1 53003U 22076T   23042.62304923  .00025674  00000-0  16238-2 0  9994,2 53003  53.2155  91.2767 0001229  98.9522 261.1609 15.08874679 33922,6917.774,95.435,540.49,538.789,0.0
53003.0,STARLINK-4255,PAYLOAD,2023-02-11 19:43:21,15.08833299,0.0001354,53.2166,90.3849,104.421,255.6933,-0.00010689,-1.988e-05,0.0,0 STARLINK-4255,1 53003U 22076T   23042.82177624 -.00001988  00000-0 -10689-3 0  9991,2 53003  53.2166  90.3849 0001354 104.4210 255.6933 15.08833299 33483,6917.901,95.438,540.703,538.829,0.0
53003.0,STARLINK-4255,PAYLOAD,2023-02-12 03:40:17,15.08832217,9.95e-05,53.2167,88.8995,109.7231,250.3868,0.0014708,0.00023192,0.0,0 STARLINK-4255,1 53003U 22076T   23043.15297680  .00023192  00000-0  14708-2 0  9997,2 53003  53.2167  88.8995 0000995 109.7231 250.3868 15.08832217 34006,6917.904,95.438,540.458,539.081,0.0
53003.0,STARLINK-4255,PAYLOAD,2023-02-12 10:01:49,15.08855482,0.0001049,53.2163,87.7103,100.6175,259.4936,0.0023147,0.00036758,0.0,0 STARLINK-4255,1 53003U 22076T   23043.41793510  .00036758  00000-0  23147-2 0  9998,2 53003  53.2163  87.7103 0001049 100.6175 259.4936 15.08855482 34048,6917.833,95.437,540.424,538.972,0.0
53003.0,STARLINK-4255,PAYLOAD,2023-02-12 19:34:08,15.08868028,2.7e-05,53.2158,85.9252,340.4044,19.6937,0.0017217,0.0002724,0.0,0 STARLINK-4255,1 53003U 22076T   23043.81537041  .00027240  00000-0  17217-2 0  9994,2 53003  53.2158  85.9252 0000270 340.4044  19.6937 15.08868028 34105,6917.795,95.436,539.847,539.473,0.0
53003.0,STARLINK-4255,PAYLOAD,2023-02-13 03:31:04,15.08837549,0.000171,53.2178,84.4392,102.0749,258.0435,0.00015926,2.247e-05,0.0,0 STARLINK-4255,1 53003U 22076T   23044.14657780  .00002247  00000-0  15926-3 0  9990,2 53003  53.2178  84.4392 0001710 102.0749 258.0435 15.08837549 34151,6917.888,95.438,540.936,538.57,0.0
53003.0,STARLINK-4255,PAYLOAD,2023-02-14 03:21:51,15.08834811,0.0001341,53.2177,79.9791,93.122,266.9925,9.958e-05,1.297e-05,0.0,0 STARLINK-4255,1 53003U 22076T   23045.14018234  .00001297  00000-0  99580-4 0  9999,2 53003  53.2177  79.9791 0001341  93.1220 266.9925 15.08834811 34304,6917.896,95.438,540.689,538.834,0.0
